NORAD_CAT_ID,OBJECT_NAME,OBJECT_TYPE,EPOCH,MEAN_MOTION,ECCENTRICITY,INCLINATION,RA_OF_ASC_NODE,ARG_OF_PERICENTER,MEAN_ANOMALY,BSTAR,MEAN_MOTION_DOT,MEAN_MOTION_DDOT,TLE_LINE0,TLE_LINE1,TLE_LINE2,SEMIMAJOR_AXIS,PERIOD,APOGEE,PERIGEE,DECAYED
52697.0,STARLINK-4018,PAYLOAD,2022-07-10 14:00:01,15.37663958,0.0001414,53.2176,37.2873,49.1197,278.7296,-0.030947,-0.01066561,0.0,0 STARLINK-4018,1 52697U 22053AT  22191.58334491 -.01066561  00000-0 -30947-1 0  9994,2 52697  53.2176  37.2873 0001414  49.1197 278.7296 15.37663958  8659,6831.156,93.649,453.987,452.055,0.0
52697.0,STARLINK-4018,PAYLOAD,2022-07-10 22:00:00,15.369072,0.0001798,53.2175,35.7288,32.288000000000004,341.324,-0.031888,-0.01071839,0.0,0 STARLINK-4018,1 52697U 22053AT  22191.91667824 -.01071839  00000-0 -31888-1 0  9999,2 52697  53.2175  35.7288 0001798  32.2880 341.3240 15.36907200  1309,6833.398,93.695,456.492,454.035,0.0
52697.0,STARLINK-4018,PAYLOAD,2022-07-11 14:00:01,15.35385187,0.0001736,53.2176,32.6113,39.6113,62.7945,-0.03331,-0.01066292,0.0,0 STARLINK-4018,1 52697U 22053AT  22192.58334491 -.01066292  00000-0 -33310-1 0  9993,2 52697  53.2176  32.6113 0001736  39.6113  62.7945 15.35385187  1304,6837.9140000000025,93.788,460.966,458.592,0.0
52697.0,STARLINK-4018,PAYLOAD,2022-07-11 22:00:00,15.34626372,0.0001855,53.2175,31.0583,39.8601,105.571,-0.034169,-0.01067384,0.0,0 STARLINK-4018,1 52697U 22053AT  22192.91667824 -.01067384  00000-0 -34169-1 0  9995,2 52697  53.2175  31.0583 0001855  39.8601 105.5710 15.34626372  1302,6840.167,93.834,463.301,460.764,0.0
52697.0,STARLINK-4018,PAYLOAD,2022-07-12 14:00:01,15.33107177,0.0001773,53.2175,27.9518,42.5709,186.1766,-0.035826,-0.01066296,0.0,0 STARLINK-4018,1 52697U 22053AT  22193.58334491 -.01066296  00000-0 -35826-1 0  9992,2 52697  53.2175  27.9518 0001773  42.5709 186.1766 15.33107177  8964,6844.685,93.927,467.764,465.337,0.0
52697.0,STARLINK-4018,PAYLOAD,2022-07-12 22:00:00,15.32347359,0.0001736,53.2176,26.404,41.6514,227.384,-0.036678,-0.01065748,0.0,0 STARLINK-4018,1 52697U 22053AT  22193.91667824 -.01065748  00000-0 -36678-1 0  9995,2 52697  53.2176  26.4040 0001736  41.6514 227.3840 15.32347359  1301,6846.948,93.973,470.002,467.624,0.0
52697.0,STARLINK-4018,PAYLOAD,2022-07-13 14:00:01,15.30829091,0.0001515,53.2177,23.3082,43.6142,303.2616,-0.038516,-0.01066853,0.0,0 STARLINK-4018,1 52697U 22053AT  22194.58334491 -.01066853  00000-0 -38516-1 0  9991,2 52697  53.2177  23.3082 0001515  43.6142 303.2616 15.30829091  9116,6851.474,94.067,474.377,472.301,0.0
52697.0,STARLINK-4018,PAYLOAD,2022-07-13 22:00:00,15.30069231,0.0001756,53.2176,21.7657,34.6239,349.802,-0.039442,-0.01066947,0.0,0 STARLINK-4018,1 52697U 22053AT  22194.91667824 -.01066947  00000-0 -39442-1 0  9990,2 52697  53.2176  21.7657 0001756  34.6239 349.8020 15.30069231  1309,6853.743,94.113,476.811,474.404,0.0
52697.0,STARLINK-4018,PAYLOAD,2022-07-14 14:00:01,15.28549473,0.0002033,53.2176,18.6807,30.7745,66.0163,-0.041276,-0.01065397,0.0,0 STARLINK-4018,1 52697U 22053AT  22195.58334491 -.01065397  00000-0 -41276-1 0  9991,2 52697  53.2176  18.6807 0002033  30.7745  66.0163 15.28549473  9266,6858.285,94.207,481.544,478.755,0.0
52697.0,STARLINK-4018,PAYLOAD,2022-07-14 22:00:00,15.27787811,0.0001963,53.2176,17.1435,35.5068,96.0966,-0.042105,-0.01061911,0.0,0 STARLINK-4018,1 52697U 22053AT  22195.91667824 -.01061911  00000-0 -42105-1 0  9997,2 52697  53.2176  17.1435 0001963  35.5068  96.0966 15.27787811  1309,6860.564,94.254,483.776,481.082,0.0
52697.0,STARLINK-4018,PAYLOAD,2022-07-15 14:00:01,15.2626992,0.0002032,53.2177,14.0696,36.1672,162.3242,-0.044161,-0.01063186,0.0,0 STARLINK-4018,1 52697U 22053AT  22196.58334491 -.01063186  00000-0 -44161-1 0  9992,2 52697  53.2177  14.0696 0002032  36.1672 162.3242 15.26269920  9421,6865.111999999999,94.348,488.372,485.582,0.0
52697.0,STARLINK-4018,PAYLOAD,2022-07-15 22:00:00,15.25508337,0.0001866,53.2176,12.5375,40.0917,190.4742,-0.045016,-0.01059315,0.0,0 STARLINK-4018,1 52697U 22053AT  22196.91667824 -.01059315  00000-0 -45016-1 0  9997,2 52697  53.2176  12.5375 0001866  40.0917 190.4742 15.25508337  1300,6867.396,94.395,490.543,487.98,0.0
52697.0,STARLINK-4018,PAYLOAD,2022-07-16 14:00:01,15.23992215,0.0001721999999999,53.2176,9.4742,40.0679,251.9094,-0.047348,-0.0106397,0.0,0 STARLINK-4018,1 52697U 22053AT  22197.58334491 -.01063970  00000-0 -47348-1 0  9994,2 52697  53.2176   9.4742 0001722  40.0679 251.9094 15.23992215  9579,6871.95,94.489,494.999,492.632,0.0
52697.0,STARLINK-4018,PAYLOAD,2022-07-16 22:00:00,15.23231017,0.0001624,53.2175,7.9474,41.3598,279.954,-0.048284,-0.01060817,0.0,0 STARLINK-4018,1 52697U 22053AT  22197.91667824 -.01060817  00000-0 -48284-1 0  9997,2 52697  53.2175   7.9474 0001624  41.3598 279.9540 15.23231017  1303,6874.239000000001,94.536,497.221,494.98800000000006,0.0
52697.0,STARLINK-4018,PAYLOAD,2022-07-17 14:00:01,15.21714612,0.0001624,53.2177,4.895,39.8474,337.402,-0.050756,-0.0106553,0.0,0 STARLINK-4018,1 52697U 22053AT  22198.58334491 -.01065530  00000-0 -50756-1 0  9996,2 52697  53.2177   4.8950 0001624  39.8474 337.4020 15.21714612  9727,6878.806,94.63,501.788,499.55300000000005,0.0
52697.0,STARLINK-4018,PAYLOAD,2022-07-17 22:00:00,15.20952158,0.0001726,53.2175,3.3734,36.7068,7.1418,-0.051638,-0.01060386,0.0,0 STARLINK-4018,1 52697U 22053AT  22198.91667824 -.01060386  00000-0 -51638-1 0  9996,2 52697  53.2175   3.3734 0001726  36.7068   7.1418 15.20952158  1303,6881.104,94.678,504.157,501.782,0.0
52697.0,STARLINK-4018,PAYLOAD,2022-07-18 14:00:01,15.19435276,0.0001936,53.2176,0.3318,34.6046,59.7036,-0.054209,-0.01064394,0.0,0 STARLINK-4018,1 52697U 22053AT  22199.58334491 -.01064394  00000-0 -54209-1 0  9991,2 52697  53.2176   0.3318 0001936  34.6046  59.7036 15.19435276  9879,6885.683000000001,94.772,508.881,506.215,0.0
52697.0,STARLINK-4018,PAYLOAD,2022-07-18 22:00:00,15.186722400000004,0.0002019,53.2174,358.8153,33.482,84.6876,-0.055064,-0.01057989,0.0,0 STARLINK-4018,1 52697U 22053AT  22199.91667824 -.01057989  00000-0 -55064-1 0  9999,2 52697  53.2174 358.8153 0002019  33.4820  84.6876 15.18672240  1307,6887.989000000001,94.82,511.245,508.464,0.0
52697.0,STARLINK-4018,PAYLOAD,2022-07-19 14:00:01,15.17155305,0.0001866,53.2176,355.7845,42.9397,120.2135,-0.05776,-0.01075171,0.0,0 STARLINK-4018,1 52697U 22053AT  22200.58334491 -.01075171  00000-0 -57760-1 0  9994,2 52697  53.2176 355.7845 0001866  42.9397 120.2135 15.17155305 10038,6892.58,94.914,515.731,513.159,0.0
52697.0,STARLINK-4018,PAYLOAD,2022-07-19 22:00:00,15.16393809,0.0001878,53.2174,354.2732,41.3092,142.9668,-0.058794,-0.01071036,0.0,0 STARLINK-4018,1 52697U 22053AT  22200.91667824 -.01071036  00000-0 -58794-1 0  9994,2 52697  53.2174 354.2732 0001878  41.3092 142.9668 15.16393809  1307,6894.887,94.962,518.047,515.457,0.0
52697.0,STARLINK-4018,PAYLOAD,2022-07-20 14:00:01,15.14875725,0.0001954,53.2176,351.2532,39.451,184.3328,-0.0615169999999999,-0.01072938,0.0,0 STARLINK-4018,1 52697U 22053AT  22201.58334491 -.01072938  00000-0 -61517-1 0  9998,2 52697  53.2176 351.2532 0001954  39.4510 184.3328 15.14875725 10181,6899.493,95.057,522.706,520.01,0.0
52697.0,STARLINK-4018,PAYLOAD,2022-07-20 22:00:01,15.14116782,0.0001771999999999,53.2173,349.747,43.5003,198.7307,-0.062878,-0.01073239,0.0,0 STARLINK-4018,1 52697U 22053AT  22201.91668981 -.01073239  00000-0 -62878-1 0  9995,2 52697  53.2173 349.7470 0001772  43.5003 198.7307 15.14116782  1303,6901.7980000000025,95.105,524.886,522.44,0.0
52697.0,STARLINK-4018,PAYLOAD,2022-07-21 08:00:01,15.13165871,0.0001761999999999,53.2173,347.8639,36.0476,317.82,-0.064511,-0.01072011,0.0,0 STARLINK-4018,1 52697U 22053AT  22202.33334491 -.01072011  00000-0 -64511-1 0  9991,2 52697  53.2173 347.8639 0001762  36.0476 317.8200 15.13165871 10295,6904.689,95.165,527.771,525.3380000000002,0.0
52697.0,STARLINK-4018,PAYLOAD,2022-07-21 14:00:01,15.12597222,0.0002065,53.2175,346.7377,32.3975,243.8658,-0.065585,-0.01072569,0.0,0 STARLINK-4018,1 52697U 22053AT  22202.58335648 -.01072569  00000-0 -65585-1 0  9993,2 52697  53.2175 346.7377 0002065  32.3975 243.8658 15.12597222  1309,6906.42,95.2,529.711,526.859,0.0
52697.0,STARLINK-4018,PAYLOAD,2022-07-21 22:00:00,15.11839406,0.0001557,53.2172,345.2367,42.8611,248.9849,-0.067166,-0.01075042,0.0,0 STARLINK-4018,1 52697U 22053AT  22202.91667824 -.01075042  00000-0 -67166-1 0  9990,2 52697  53.2172 345.2367 0001557  42.8611 248.9849 15.11839406  1307,6908.728,95.248,531.668,529.5169999999998,0.0
52697.0,STARLINK-4018,PAYLOAD,2022-07-22 06:00:00,15.11076754,0.0001465,53.2174,343.7351,51.8459,254.7367,-0.068297,-0.01070453,0.0,0 STARLINK-4018,1 52697U 22053AT  22203.25001157 -.01070453  00000-0 -68297-1 0  9996,2 52697  53.2174 343.7351 0001465  51.8459 254.7367 15.11076754 10436,6911.052,95.296,533.929,531.904,0.0
52697.0,STARLINK-4018,PAYLOAD,2022-07-22 22:00:00,15.09438015,0.0001582,53.2171,340.741,39.1908,294.1391,-0.043266,-0.00655776,0.0,0 STARLINK-4018,1 52697U 22053AT  22203.91667824 -.00655776  00000-0 -43266-1 0  9993,2 52697  53.2171 340.7410 0001582  39.1908 294.1391 15.09438015  1304,6916.053000000001,95.4,539.012,536.8240000000002,0.0
52697.0,STARLINK-4018,PAYLOAD,2022-07-23 06:00:00,15.08849132,0.0001313,53.2173,339.2428,64.9247,280.4576,-0.0013229,-0.00021285,0.0,0 STARLINK-4018,1 52697U 22053AT  22204.25001157 -.00021285  00000-0 -13229-2 0  9991,2 52697  53.2173 339.2428 0001313  64.9247 280.4576 15.08849132 10580,6917.852,95.437,540.626,538.809,0.0
52697.0,STARLINK-4018,PAYLOAD,2022-07-23 14:00:01,15.08861569,0.000159,53.2174,337.7381,48.2609,308.7703,-0.0027746,-0.00044201,0.0,0 STARLINK-4018,1 52697U 22053AT  22204.58335648 -.00044201  00000-0 -27746-2 0  9994,2 52697  53.2174 337.7381 0001590  48.2609 308.7703 15.08861569  1300,6917.814,95.436,540.779,538.58,0.0
